STARLINK-31991          
1 59963U 24107U   25273.77915347 -.00009521  00000+0 -31017-3 0  9991
2 59963  53.1580  88.2842 0001190  79.3740 280.7395 15.30154047 75319
STARLINK-31979          
1 59964U 24107V   25274.17841861 -.00000316  00000+0  14650-5 0  9994
2 59964  53.1605  86.5069 0000955  84.6784 275.4326 15.30187164 75327
STARLINK-31978          
1 60016U 24111A   25273.76437402  .00000234  00000+0  20030-4 0  9991
2 60016  53.1595  98.7877 0000927 103.1804 256.9300 15.30189409 74448
STARLINK-31987          
1 60017U 24111B   25273.95399605 -.00001115  00000+0 -25547-4 0  9994
2 60017  53.1594  97.8376 0001045  99.0841 261.0278 15.30181960 74533
STARLINK-31984          
1 60018U 24111C   25274.20786377 -.00000530  00000+0 -57607-5 0  9993
2 60018  53.1599  96.5785 0001155  82.9334 277.1798 15.30192830 74464
STARLINK-31986          
1 60019U 24111D   25273.80649004  .00004278  00000+0  15662-3 0  9998
2 60019  53.1605  98.3405 0000724  84.5354 275.5729 15.30168732 74564
STARLINK-31883          
1 60020U 24111E   25273.76121639 -.00002118  00000+0 -59431-4 0  9990
2 60020  53.1596  98.7701 0001585  91.1713 268.9470 15.30174809 74490
STARLINK-31967          
1 60021U 24111F   25273.83908383 -.00001747  00000+0 -46907-4 0  9999
2 60021  53.1609  97.8252 0001089 113.7389 246.3726 15.30179052 74574
STARLINK-31982          
1 60022U 24111G   25274.22464104 -.00001206  00000+0 -28624-4 0  9998
2 60022  53.1598  95.9743 0001141 105.6483 254.4643 15.30180309 74632
STARLINK-31992          
1 60023U 24111H   25274.23413816 -.00002732  00000+0 -80183-4 0  9997
2 60023  53.1610  96.0280 0000922  84.2156 275.8950 15.30187807 74639
STARLINK-31990          
1 60024U 24111J   25273.79698584 -.00001307  00000+0 -32042-4 0  9993
2 60024  53.1599  98.2801 0001116  92.6088 267.5041 15.30180533 74551
STARLINK-31864          
1 60025U 24111K   25274.33336806  .00164711  00000+0  44866-2 0  9993
2 60025  53.1587  95.0166 0001534 271.0822 169.0112 15.36385392  5882
STARLINK-31939          
1 60026U 24111L   25274.24046295 -.00000517  00000+0 -53214-5 0  9999
2 60026  53.1613  96.0685 0001170  84.2847 275.8287 15.30189714 74628
STARLINK-32012          
1 60027U 24111M   25274.24362949 -.00001791  00000+0 -48379-4 0  9997
2 60027  53.1609  96.0842 0001251  94.5777 265.5367 15.30193891 74621
STARLINK-32008          
1 60028U 24111N   25273.79065337 -.00002008  00000+0 -55705-4 0  9991
2 60028  53.1607  98.2325 0001262  98.3238 261.7906 15.30180843 74558
STARLINK-32006          
1 60029U 24111P   25273.93077690 -.00000238  00000+0  40982-5 0  9997
2 60029  53.1597  97.6929 0001189  72.5666 287.5465 15.30188192 74570
STARLINK-32011          
1 60030U 24111Q   25274.22674852 -.00001061  00000+0 -23725-4 0  9996
2 60030  53.1608  95.9842 0001145 115.3222 244.7898 15.30185589 74624
STARLINK-31878          
1 60031U 24111R   25274.33930161  .00000319  00000+0  22876-4 0  9996
2 60031  53.1612  44.0188 0001159  86.6426 273.4708 15.30204028 75113
STARLINK-32017          
1 60032U 24111S   25273.80437005 -.00000584  00000+0 -75954-5 0  9999
2 60032  53.1602  98.3431 0001211  94.2961 265.8178 15.30189821 74550
STARLINK-32005          
1 60034U 24111U   25273.92444977 -.00001408  00000+0 -35444-4 0  9995
2 60034  53.1599  97.6502 0001211  89.4994 270.6145 15.30179686 74477
STARLINK-31981          
1 60035U 24111V   25273.74748604  .00000727  00000+0  36682-4 0  9996
2 60035  53.1584  98.6798 0001352  89.4261 270.6895 15.30194847 74471
STARLINK-31985          
1 60036U 24111W   25273.80965085 -.00001163  00000+0 -27178-4 0  9995
2 60036  53.1599  98.3587 0001204  98.2930 261.8207 15.30179140 74498
STARLINK-31918          
1 60037U 24111X   25274.23729410 -.00000164  00000+0  65925-5 0  9996
2 60037  53.1605  96.0466 0000974 104.9748 255.1361 15.30193827 74555
STARLINK-11129 [DTC]    
1 60038U 24112A   25274.30697163 -.00005167  00000+0 -37839-4 0  9996
2 60038  53.1576 332.3028 0001058  79.6056 280.5081 15.69697907 75942
STARLINK-11140 [DTC]    
1 60039U 24112B   25273.60172024 -.00003661  00000+0 -25413-4 0  9995
2 60039  53.1591 335.7209 0000919  91.9902 268.1221 15.69676899 75833
STARLINK-11122 [DTC]    
1 60040U 24112C   25273.40578024 -.00004479  00000+0 -32137-4 0  9994
2 60040  53.1576 336.6293 0001185  84.9059 275.2094 15.69704145 75802
STARLINK-11149 [DTC]    
1 60041U 24112D   25273.40086457 -.00003968  00000+0 -27914-4 0  9998
2 60041  53.1564 336.5991 0000955 114.5461 245.5656 15.69706195 75806
STARLINK-11120 [DTC]    
1 60042U 24112E   25272.63194517  .00002052  00000+0  21790-4 0  9997
2 60042  53.1587 340.3294 0001336 109.9989 250.1173 15.69713023 75688
STARLINK-11086 [DTC]    
1 60043U 24112F   25273.39105522  .00000180  00000+0  63482-5 0  9995
2 60043  53.1582 336.5238 0001615 133.0496 227.0657 15.69718340 75801
STARLINK-11148 [DTC]    
1 60044U 24112G   25274.15020989 -.00002255  00000+0 -13772-4 0  9997
2 60044  53.1581 332.7319 0000926  75.2060 284.9061 15.69693227 75927
STARLINK-11116 [DTC]    
1 60045U 24112H   25273.44491703  .00001622  00000+0  18246-4 0  9991
2 60045  53.1600 336.1533 0001392  94.8070 265.3107 15.69717280 75810
STARLINK-11155 [DTC]    
1 60046U 24112J   25274.14039876 -.00004405  00000+0 -31548-4 0  9993
2 60046  53.1588 332.6678 0000582 130.4787 229.6282 15.69697782 75922
STARLINK-11163 [DTC]    
1 60047U 24112K   25273.56245825 -.00001610  00000+0 -84289-5 0  9998
2 60047  53.1595 335.4579 0001764  69.8711 290.2497 15.69704045 75830
STARLINK-11135 [DTC]    
1 60048U 24112L   25273.16571242  .00002012  00000+0  21451-4 0  9996
2 60048  53.1589 337.2634 0001504  63.0284 297.0887 15.69724853 75779
STARLINK-11151 [DTC]    
1 60049U 24112M   25273.55754778  .00001867  00000+0  20280-4 0  9993
2 60049  53.1576 335.4336 0002263  33.2550 326.8609 15.69706453 75839
STARLINK-11137 [DTC]    
1 60050U 24112N   25273.87100144 -.00002132  00000+0 -12754-4 0  9997
2 60050  53.1590 333.8243 0000863 116.1912 243.9194 15.69693972 75887
STARLINK-31811          
1 60051U 24112P   25273.81130477 -.00000479  00000+0 -40600-5 0  9998
2 60051  53.1593 100.9531 0001103  77.2945 282.8179 15.30186290 74113
STARLINK-31775          
1 60052U 24112Q   25273.80176995  .00010040  00000+0  35025-3 0  9999
2 60052  53.1586 100.8970 0001126  69.6080 290.5042 15.30236655 74118
STARLINK-31793          
1 60053U 24112R   25273.80813383 -.00001399  00000+0 -35139-4 0  9995
2 60053  53.1582 100.9369 0000897  86.2762 273.8342 15.30186994 74111
STARLINK-31735          
1 60054U 24112S   25274.25263611  .00004664  00000+0  16937-3 0  9999
2 60054  53.1598  98.7357 0001066  72.3433 287.7684 15.30226520 74180
STARLINK-31788          
1 60055U 24112T   25274.24950946 -.00000569  00000+0 -70900-5 0  9997
2 60055  53.1609  98.7124 0001285 107.9648 252.1493 15.30188207 74185
STARLINK-31825          
1 60056U 24112U   25273.92926356 -.00003958  00000+0 -12162-3 0  9999
2 60056  53.1590 100.2735 0001213 100.1043 260.0095 15.30187874 74137
STARLINK-31437          
1 60057U 24112V   25273.93558357  .00004838  00000+0  17525-3 0  9997
2 60057  53.1584 100.3121 0000932 109.2174 250.8928 15.30217843 74135
STARLINK-11181 [DTC]    
1 60059U 24113A   25273.97024220 -.00003859  00000+0 -27042-4 0  9991
2 60059  53.1580 258.7065 0001070  66.2581 293.8549 15.69680653 74474
STARLINK-11176 [DTC]    
1 60060U 24113B   25273.32862785 -.00002308  00000+0 -14208-4 0  9996
2 60060  53.1594 261.8118 0000994  74.3413 285.7714 15.69694975 74378
STARLINK-11167 [DTC]    
1 60061U 24113C   25273.26002507  .00003801  00000+0  36174-4 0  9991
2 60061  53.1601 262.0922 0000816  85.6526 274.4585 15.69735692 74662
STARLINK-11166 [DTC]    
1 60062U 24113D   25274.21019563 -.00002590  00000+0 -16538-4 0  9996
2 60062  53.1590 257.3489 0001662  90.5017 269.6192 15.69685633 74518
STARLINK-11165 [DTC]    
1 60063U 24113E   25273.95061999 -.00004174  00000+0 -29635-4 0  9999
2 60063  53.1587 258.5739 0001532  86.9861 273.1333 15.69687842 74474
STARLINK-11169 [DTC]    
1 60064U 24113F   25274.20037072 -.00000152  00000+0  36118-5 0  9990
2 60064  53.1584 257.2874 0001507  66.9557 293.1620 15.69708480 74518
STARLINK-11102 [DTC]    
1 60065U 24113G   25274.25912088  .00001242  00000+0  15103-4 0  9995
2 60065  53.1589 256.9391 0001416  54.8312 305.2839 15.69730184 74522
STARLINK-11141 [DTC]    
1 60066U 24113H   25274.25421150 -.00003016  00000+0 -20014-4 0  9991
2 60066  53.1573 256.9089 0001164 123.5687 236.5442 15.69745729 74526
STARLINK-11153 [DTC]    
1 60067U 24113J   25273.35804982 -.00000098  00000+0  40524-5 0  9995
2 60067  53.1589 262.0052 0001502  59.9494 300.1673 15.69708568 74373
STARLINK-11170 [DTC]    
1 60068U 24113K   25274.11718801 -.00002776  00000+0 -18057-4 0  9996
2 60068  53.1591 258.2043 0001479  88.2926 271.8261 15.69707888 74496
STARLINK-11171 [DTC]    
1 60069U 24113L   25274.23959847  .00000495  00000+0  89420-5 0  9994
2 60069  53.1590 257.5437 0001397  53.6464 306.4682 15.69733387 74515
STARLINK-11186 [DTC]    
1 60070U 24113M   25274.10737622 -.00000877  00000+0 -23760-5 0  9998
2 60070  53.1588 258.1416 0001531  77.2091 282.9098 15.69699839 74901
STARLINK-11184 [DTC]    
1 60071U 24113N   25274.22985025 -.00006123  00000+0 -45796-4 0  9996
2 60071  53.1587 257.5108 0001287 121.3683 238.7461 15.69667185 74517
STARLINK-32032          
1 60077U 24113U   25274.31932000  .00000941  00000+0  43890-4 0  9990
2 60077  53.1608  19.0895 0001420  66.4517 293.6633 15.30202219 72830
STARLINK-31441          
1 60091U 24117A   25273.64253957 -.00000825  00000+0 -15760-4 0  9990
2 60091  53.1607  60.4478 0001062  87.5011 272.6112 15.30185852 72389
STARLINK-32044          
1 60092U 24117B   25273.68780046 -.00000311  00000+0  16182-5 0  9998
2 60092  53.1604  60.0157 0000939  81.0065 279.1042 15.30190087 72398
